NORAD_CAT_ID,OBJECT_NAME,OBJECT_TYPE,EPOCH,MEAN_MOTION,ECCENTRICITY,INCLINATION,RA_OF_ASC_NODE,ARG_OF_PERICENTER,MEAN_ANOMALY,BSTAR,MEAN_MOTION_DOT,MEAN_MOTION_DDOT,TLE_LINE0,TLE_LINE1,TLE_LINE2,SEMIMAJOR_AXIS,PERIOD,APOGEE,PERIGEE,DECAYED
53819.0,STARLINK-4738,PAYLOAD,2024-01-24 17:07:45,15.0884077,0.0001546,53.217,183.3135,120.5793,239.5352,4.1971e-05,3.8e-06,0.0,0 STARLINK-4738,1 53819U 22114B   24024.71372323  .00000380  00000-0  41971-4 0  9993,2 53819  53.2170 183.3135 0001546 120.5793 239.5352 15.08840770 75295,6917.878,95.438,540.813,538.674,0.0
53819.0,STARLINK-4738,PAYLOAD,2024-01-25 13:47:47,15.08805901,0.0001283,53.2177,179.4509,114.2039,245.9087,0.00040159,6.103e-05,0.0,0 STARLINK-4738,1 53819U 22114B   24025.57485231  .00006103  00000-0  40159-3 0  9996,2 53819  53.2177 179.4509 0001283 114.2039 245.9087 15.08805901 75961,6917.985,95.44,540.737,538.962,0.0
53819.0,STARLINK-4738,PAYLOAD,2024-01-25 16:58:33,15.08803277,0.0001182,53.2165,178.8509,102.7528,257.3596,0.00047743,7.311e-05,0.0,0 STARLINK-4738,1 53819U 22114B   24025.70733352  .00007311  00000-0  47743-3 0  9999,2 53819  53.2165 178.8509 0001182 102.7528 257.3596 15.08803277 75443,6917.993,95.44,540.675,539.04,0.0
53819.0,STARLINK-4738,PAYLOAD,2024-01-26 13:38:34,15.08832252,0.0001377,53.2165,174.985,94.6621,265.4529,5.2389e-05,5.46e-06,0.0,0 STARLINK-4738,1 53819U 22114B   24026.56845420  .00000546  00000-0  52389-4 0  9990,2 53819  53.2165 174.9850 0001377  94.6621 265.4529 15.08832252 76114,6917.904,95.438,540.722,538.816,0.0
53819.0,STARLINK-4738,PAYLOAD,2024-01-26 15:13:57,15.08833154,0.000138,53.2166,174.6877,91.0885,269.0266,5.8503e-05,6.43e-06,0.0,0 STARLINK-4738,1 53819U 22114B   24026.63469390  .00000643  00000-0  58503-4 0  9998,2 53819  53.2166 174.6877 0001380  91.0885 269.0266 15.08833154 75588,6917.901,95.438,540.721,538.812,0.0
53819.0,STARLINK-4738,PAYLOAD,2024-01-27 13:29:21,15.08841182,0.0001303,53.2158,170.5268,90.3756,269.7386,0.00012069,1.633e-05,0.0,0 STARLINK-4738,1 53819U 22114B   24027.56205037  .00001633  00000-0  12069-3 0  9993,2 53819  53.2158 170.5268 0001303  90.3756 269.7386 15.08841182 75728,6917.877,95.437,540.643,538.84,0.0
53819.0,STARLINK-4738,PAYLOAD,2024-01-27 15:04:44,15.08842489,0.0001306,53.2158,170.2296,88.973,271.1412,0.0001309,1.796e-05,0.0,0 STARLINK-4738,1 53819U 22114B   24027.62828946  .00001796  00000-0  13090-3 0  9995,2 53819  53.2158 170.2296 0001306  88.9730 271.1412 15.08842489 76273,6917.873,95.437,540.641,538.834,0.0
53819.0,STARLINK-4738,PAYLOAD,2024-01-28 14:55:32,15.08835336,0.000153,53.2168,165.7731,113.4805,246.6348,1.692e-07,-2.85e-06,0.0,0 STARLINK-4738,1 53819U 22114B   24028.62189973 -.00000285  00000-0  16920-6 0  9997,2 53819  53.2168 165.7731 0001530 113.4805 246.6348 15.08835336 76428,6917.895,95.438,540.818,538.701,0.0
53819.0,STARLINK-4738,PAYLOAD,2024-01-28 18:06:18,15.0883749,0.0001268,53.2159,165.1775,85.2283,274.8854,1.8442e-05,6e-08,0.0,0 STARLINK-4738,1 53819U 22114B   24028.75437908  .00000006  00000-0  18442-4 0  9994,2 53819  53.2159 165.1775 0001268  85.2283 274.8854 15.08837490 75904,6917.888,95.438,540.63,538.876,0.0
53819.0,STARLINK-4738,PAYLOAD,2024-01-29 08:24:46,15.08847448,0.0001262,53.2162,162.4951,102.1271,257.9863,-2.4169e-05,-6.73e-06,0.0,0 STARLINK-4738,1 53819U 22114B   24029.35053429 -.00000673  00000-0 -24169-4 0  9998,2 53819  53.2162 162.4951 0001262 102.1271 257.9863 15.08847448 75999,6917.858,95.437,540.596,538.85,0.0
53819.0,STARLINK-4738,PAYLOAD,2024-01-30 08:15:33,15.08840235,0.0001135,53.2166,158.0353,105.3217,254.79,5.3183e-05,5.59e-06,0.0,0 STARLINK-4738,1 53819U 22114B   24030.34413606  .00000559  00000-0  53183-4 0  9995,2 53819  53.2166 158.0353 0001135 105.3217 254.7900 15.08840235 76146,6917.88,95.438,540.53,538.959,0.0
53819.0,STARLINK-4738,PAYLOAD,2024-01-30 14:37:06,15.08838449,0.0001139,53.2168,156.8447,107.1915,252.9202,3.7775e-05,3.13e-06,0.0,0 STARLINK-4738,1 53819U 22114B   24030.60909793  .00000313  00000-0  37775-4 0  9998,2 53819  53.2168 156.8447 0001139 107.1915 252.9202 15.08838449 76720,6917.885,95.438,540.538,538.962,0.0
53819.0,STARLINK-4738,PAYLOAD,2024-01-31 11:17:06,15.08841698,0.0001183,53.2178,152.9789,102.782,257.3305,5.9165e-05,6.54e-06,0.0,0 STARLINK-4738,1 53819U 22114B   24031.47021526  .00000654  00000-0  59165-4 0  9998,2 53819  53.2178 152.9789 0001183 102.7820 257.3305 15.08841698 76310,6917.875,95.437,540.559,538.922,0.0
53819.0,STARLINK-4738,PAYLOAD,2024-01-31 17:38:38,15.0883314,0.0001501,53.2189,151.7896,105.0469,255.0689,0.00034758,5.247e-05,0.0,0 STARLINK-4738,1 53819U 22114B   24031.73517264  .00005247  00000-0  34758-3 0  9999,2 53819  53.2189 151.7896 0001501 105.0469 255.0689 15.08833140 76893,6917.901,95.438,540.805,538.728,0.0
53819.0,STARLINK-4738,PAYLOAD,2024-02-01 11:07:53,15.08841511,0.0001994,53.2159,148.5144,132.2889,227.8272,3.5827e-05,2.82e-06,0.0,0 STARLINK-4738,1 53819U 22114B   24032.46381222  .00000282  00000-0  35827-4 0  9996,2 53819  53.2159 148.5144 0001994 132.2889 227.8272 15.08841511 77004,6917.876,95.437,541.12,538.361,0.0
53819.0,STARLINK-4738,PAYLOAD,2024-02-01 14:18:39,15.08838893,0.0001215,53.2175,147.9232,93.4428,266.6703,4.7779e-05,4.73e-06,0.0,0 STARLINK-4738,1 53819U 22114B   24032.59629609  .00000473  00000-0  47779-4 0  9995,2 53819  53.2175 147.9232 0001215  93.4428 266.6703 15.08838893 76486,6917.884,95.438,540.589,538.908,0.0
53819.0,STARLINK-4738,PAYLOAD,2024-02-02 10:58:40,15.08874665,0.0001341,53.2172,144.0632,71.6541,288.4597,-0.00039973,-6.65e-05,0.0,0 STARLINK-4738,1 53819U 22114B   24033.45741281 -.00006650  00000-0 -39973-3 0  9993,2 53819  53.2172 144.0632 0001341  71.6541 288.4597 15.08874665 76614,6917.774,95.435,540.567,538.712,0.0
53819.0,STARLINK-4738,PAYLOAD,2024-02-02 14:09:28,15.08764585,0.0002053,53.2174,143.4661,93.5825,266.5402,0.0010843,0.00016975,0.0,0 STARLINK-4738,1 53819U 22114B   24033.58990859  .00016975  00000-0  10843-2 0  9997,2 53819  53.2174 143.4661 0002053  93.5825 266.5402 15.08764585 77173,6918.111,95.442,541.396,538.556,0.0
53819.0,STARLINK-4738,PAYLOAD,2024-02-03 12:24:51,15.08835967,0.000148,53.2183,139.3078,95.1273,264.9888,-9.7993e-06,-4.44e-06,0.0,0 STARLINK-4738,1 53819U 22114B   24034.51726270 -.00000444  00000-0 -97993-5 0  9995,2 53819  53.2183 139.3078 0001480  95.1273 264.9888 15.08835967 77316,6917.893,95.438,540.782,538.734,0.0
53819.0,STARLINK-4738,PAYLOAD,2024-02-03 17:11:00,15.08836473,0.0001451,53.2179,138.4102,88.9356,271.1802,1.9394e-05,2.1e-07,0.0,0 STARLINK-4738,1 53819U 22114B   24034.71598156  .00000021  00000-0  19394-4 0  9994,2 53819  53.2179 138.4102 0001451  88.9356 271.1802 15.08836473 76801,6917.891,95.438,540.76,538.752,0.0
53819.0,STARLINK-4738,PAYLOAD,2024-02-04 13:51:00,15.08851111,0.0001743,53.2176,134.5429,94.1162,266.0029,7.7164e-06,-1.65e-06,0.0,0 STARLINK-4738,1 53819U 22114B   24035.57709446 -.00000165  00000-0  77164-5 0  9995,2 53819  53.2176 134.5429 0001743  94.1162 266.0029 15.08851111 77479,6917.846,95.437,540.917,538.506,0.0
53819.0,STARLINK-4738,PAYLOAD,2024-02-05 12:06:25,15.08837635,0.0001585,53.2174,130.3828,104.0393,256.0775,4.3841e-05,4.1e-06,0.0,0 STARLINK-4738,1 53819U 22114B   24036.50446321  .00000410  00000-0  43841-4 0  9995,2 53819  53.2174 130.3828 0001585 104.0393 256.0775 15.08837635 77073,6917.888,95.438,540.849,538.656,0.0
53819.0,STARLINK-4738,PAYLOAD,2024-02-05 13:41:48,15.08839105,0.0001432,53.2169,130.0847,85.1468,274.9687,5.3863e-05,5.69e-06,0.0,0 STARLINK-4738,1 53819U 22114B   24036.57070301  .00000569  00000-0  53863-4 0  9993,2 53819  53.2169 130.0847 0001432  85.1468 274.9687 15.08839105 77624,6917.883,95.438,540.739,538.757,0.0
53819.0,STARLINK-4738,PAYLOAD,2024-02-06 13:32:34,15.08857581,0.0001439,53.2169,125.626,81.8544,278.2611,0.00012007,1.624e-05,0.0,0 STARLINK-4738,1 53819U 22114B   24037.56428951  .00001624  00000-0  12007-3 0  9998,2 53819  53.2169 125.6260 0001439  81.8544 278.2611 15.08857581 77776,6917.827,95.436,540.687,538.696,0.0
53819.0,STARLINK-4738,PAYLOAD,2024-02-07 11:47:59,15.08841152,0.0001406,53.2167,121.4636,82.7155,277.3997,2.0187e-05,3.3e-07,0.0,0 STARLINK-4738,1 53819U 22114B   24038.49166149  .00000033  00000-0  20187-4 0  9991,2 53819  53.2167 121.4636 0001406  82.7155 277.3997 15.08841152 77377,6917.877,95.437,540.715,538.769,0.0
53819.0,STARLINK-4738,PAYLOAD,2024-02-08 11:38:08,15.09261696,0.0001464,53.2169,116.9982,84.8593,275.2566,0.0031364,0.00050569,0.0,0 STARLINK-4738,1 53819U 22114B   24039.48482407  .00050569  00000-0  31364-2 0  9995,2 53819  53.2169 116.9982 0001464  84.8593 275.2566 15.09261696 77521,6916.592,95.411,539.469,537.444,0.0
53819.0,STARLINK-4738,PAYLOAD,2024-02-08 17:59:22,15.09436652,0.00013,53.2165,115.8069,66.1396,293.9732,0.0043596,0.00070947,0.0,0 STARLINK-4738,1 53819U 22114B   24039.74956473  .00070947  00000-0  43596-2 0  9995,2 53819  53.2165 115.8069 0001300  66.1396 293.9732 15.09436652 77566,6916.057,95.4,538.821,537.023,0.0
53819.0,STARLINK-4738,PAYLOAD,2024-02-08 21:10:01,15.09490012,0.000273,53.2173,115.2136,54.2105,305.9141,0.0047229,0.00077065,0.0,0 STARLINK-4738,1 53819U 22114B   24039.88195787  .00077065  00000-0  47229-2 0  9998,2 53819  53.2173 115.2136 0002730  54.2105 305.9141 15.09490012 78129,6915.894,95.396,539.647,535.871,0.0
53819.0,STARLINK-4738,PAYLOAD,2024-02-09 14:00:01,15.10445553,0.0001013,53.2159,112.0625,72.9619,141.2826,0.0021316,0.0003534,0.0,0 STARLINK-4738,1 53819U 22114B   24040.58334491  .00035340  00000-0  21316-2 0  9993,2 53819  53.2159 112.0625 0001013  72.9619 141.2826 15.10445553 77684,6912.977,95.336,535.542,534.142,0.0
53819.0,STARLINK-4738,PAYLOAD,2024-02-10 06:00:00,15.10473849,0.0001203,53.216,109.0607,94.4099,146.9202,0.00070955,0.00011538,0.0,0 STARLINK-4738,1 53819U 22114B   24041.25001157  .00011538  00000-0  70955-3 0  9995,2 53819  53.2160 109.0607 0001203  94.4099 146.9202 15.10473849 77784,6912.891,95.334,535.587,533.924,0.0
